$$SOE
2461288.500000000, A.D. 2026-Sep-05 00:00:00.0000, 4.545185563741043E+08, -6.962629405133863E+07, 1.149022037713276E+07,
2461295.500000000, A.D. 2026-Sep-12 00:00:00.0000, 4.553951169561850E+08, -5.887567356623340E+07, 1.126090365642245E+07,
2461302.500000000, A.D. 2026-Sep-19 00:00:00.0000, 4.560435772744145E+08, -4.809559161842711E+07, 1.102594510204954E+07,
2461309.500000000, A.D. 2026-Sep-26 00:00:00.0000, 4.564626866035848E+08, -3.729135225893466E+07, 1.078544015941984E+07,
2461316.500000000, A.D. 2026-Oct-03 00:00:00.0000, 4.566513378887231E+08, -2.646831824000890E+07, 1.053948870132606E+07,
2461323.500000000, A.D. 2026-Oct-10 00:00:00.0000, 4.566085708268251E+08, -1.563190623626727E+07, 1.028819499751204E+07,
2461330.500000000, A.D. 2026-Oct-17 00:00:00.0000, 4.563335747290328E+08, -4.787581958116388E+06, 1.003166767202983E+07,
2461337.500000000, A.D. 2026-Oct-24 00:00:00.0000, 4.558256911757288E+08, 6.059144813724444E+06, 9.770019644331817E+06,
2461344.500000000, A.D. 2026-Oct-31 00:00:00.0000, 4.550844165534839E+08, 1.690272519823639E+07, 9.503368039844593E+06,
2461351.500000000, A.D. 2026-Nov-07 00:00:00.0000, 4.541094048037935E+08, 2.773757625274275E+07, 9.231834045289930E+06,
2461358.500000000, A.D. 2026-Nov-14 00:00:00.0000, 4.529004705743597E+08, 3.855808695633006E+07, 8.955542763121737E+06,
2461365.500000000, A.D. 2026-Nov-21 00:00:00.0000, 4.514575909520553E+08, 4.935862580892270E+07, 8.674623287511276E+06,
2461372.500000000, A.D. 2026-Nov-28 00:00:00.0000, 4.497809047730283E+08, 6.013354702498321E+07, 8.389208848231994E+06,
2461379.500000000, A.D. 2026-Dec-05 00:00:00.0000, 4.478707131208277E+08, 7.087719465030102E+07, 8.099436636994835E+06,
2461386.500000000, A.D. 2026-Dec-12 00:00:00.0000, 4.457274811671270E+08, 8.158390769873109E+07, 7.805447555487774E+06,
2461393.500000000, A.D. 2026-Dec-19 00:00:00.0000, 4.433518394596959E+08, 9.224802630168556E+07, 7.507386059137940E+06,
2461400.500000000, A.D. 2026-Dec-26 00:00:00.0000, 4.407445845089521E+08, 1.028638979878656E+08, 7.205400039164357E+06,
2461407.500000000, A.D. 2027-Jan-02 00:00:00.0000, 4.379066789434236E+08, 1.134258838870755E+08, 6.899640702429332E+06,
2461414.500000000, A.D. 2027-Jan-09 00:00:00.0000, 4.348392513461799E+08, 1.239283648625411E+08, 6.590262440401800E+06,
2461421.500000000, A.D. 2027-Jan-16 00:00:00.0000, 4.315435958033518E+08, 1.343657475644583E+08, 6.277422685098641E+06,
2461428.500000000, A.D. 2027-Jan-23 00:00:00.0000, 4.280211712074417E+08, 1.447324703488278E+08, 5.961281744925827E+06,
2461435.500000000, A.D. 2027-Jan-30 00:00:00.0000, 4.242736005010919E+08, 1.550230089971201E+08, 5.642002599632122E+06,
2461442.500000000, A.D. 2027-Feb-06 00:00:00.0000, 4.203026702846707E+08, 1.652318825592707E+08, 5.319750643390715E+06,
2461449.500000000, A.D. 2027-Feb-13 00:00:00.0000, 4.161103303252527E+08, 1.753536605221071E+08, 4.994693518026605E+06,
2461456.500000000, A.D. 2027-Feb-20 00:00:00.0000, 4.116986906031326E+08, 1.853829704971981E+08, 4.667001189040318E+06,
2461463.500000000, A.D. 2027-Feb-27 00:00:00.0000, 4.070700172972890E+08, 1.953145031993297E+08, 4.336845874270737E+06,
2461470.500000000, A.D. 2027-Mar-06 00:00:00.0000, 4.022267307328818E+08, 2.051430166204763E+08, 4.004401705556214E+06,
2461477.500000000, A.D. 2027-Mar-13 00:00:00.0000, 3.971714036943686E+08, 2.148633414321612E+08, 3.669844437822714E+06,
2461484.500000000, A.D. 2027-Mar-20 00:00:00.0000, 3.919067589809550E+08, 2.244703867665483E+08, 3.333351241363183E+06,
2461491.500000000, A.D. 2027-Mar-27 00:00:00.0000, 3.864356664143843E+08, 2.339591458127030E+08, 2.995100514343470E+06,
2461498.500000000, A.D. 2027-Apr-03 00:00:00.0000, 3.807611395109567E+08, 2.433247011660536E+08, 2.655271693458453E+06,
2461505.500000000, A.D. 2027-Apr-10 00:00:00.0000, 3.748863318888388E+08, 2.525622299405136E+08, 2.314045059475616E+06,
2461512.500000000, A.D. 2027-Apr-17 00:00:00.0000, 3.688145334434044E+08, 2.616670086161613E+08, 1.971601534977004E+06,
2461519.500000000, A.D. 2027-Apr-24 00:00:00.0000, 3.625491663814353E+08, 2.706344175485159E+08, 1.628122462496400E+06,
2461526.500000000, A.D. 2027-May-01 00:00:00.0000, 3.560937814266443E+08, 2.794599451563756E+08, 1.283789338376537E+06,
2461533.500000000, A.D. 2027-May-08 00:00:00.0000, 3.494520545175513E+08, 2.881391925257776E+08, 9.387835357317179E+05,
2461540.500000000, A.D. 2027-May-15 00:00:00.0000, 3.426277825129742E+08, 2.966678793726534E+08, 5.932862321653813E+05,
2461547.500000000, A.D. 2027-May-22 00:00:00.0000, 3.356248763538725E+08, 3.050418487656156E+08, 2.474784747074097E+05,
2461554.500000000, A.D. 2027-May-29 00:00:00.0000, 3.284473550549457E+08, 3.132570691355077E+08, -9.845904517064989E+04,
2461561.500000000, A.D. 2027-Jun-05 00:00:00.0000, 3.210993414275048E+08, 3.213096366954903E+08, -4.443463314187527E+05,
2461568.500000000, A.D. 2027-Jun-12 00:00:00.0000, 3.135850575403359E+08, 3.291957786959860E+08, -7.900043183209598E+05,
2461575.500000000, A.D. 2027-Jun-19 00:00:00.0000, 3.059088196018500E+08, 3.369118565736951E+08, -1.135255045976773E+06,
2461582.500000000, A.D. 2027-Jun-26 00:00:00.0000, 2.980750325569887E+08, 3.444543687288218E+08, -1.479921822768971E+06,
2461589.500000000, A.D. 2027-Jul-03 00:00:00.0000, 2.900881845446553E+08, 3.518199529362015E+08, -1.823829385586008E+06,
2461596.500000000, A.D. 2027-Jul-10 00:00:00.0000, 2.819528412666161E+08, 3.590053883988894E+08, -2.166804059696719E+06,
2461603.500000000, A.D. 2027-Jul-17 00:00:00.0000, 2.736736403195360E+08, 3.660075974071488E+08, -2.508673924014628E+06,
2461610.500000000, A.D. 2027-Jul-24 00:00:00.0000, 2.652552856629410E+08, 3.728236465428065E+08, -2.849269000566483E+06,
2461617.500000000, A.D. 2027-Jul-31 00:00:00.0000, 2.567025426514257E+08, 3.794507476676087E+08, -3.188421486186475E+06,
2461624.500000000, A.D. 2027-Aug-07 00:00:00.0000, 2.480202334470008E+08, 3.858862598495509E+08, -3.525965913697869E+06,
2461631.500000000, A.D. 2027-Aug-14 00:00:00.0000, 2.392132305240854E+08, 3.921276919745932E+08, -3.861739051996827E+06,
2461638.500000000, A.D. 2027-Aug-21 00:00:00.0000, 2.302864488968172E+08, 3.981727026840154E+08, -4.195579876174808E+06,
2461645.500000000, A.D. 2027-Aug-28 00:00:00.0000, 2.212448405142283E+08, 4.040190988481521E+08, -4.527329823972017E+06,
2461652.500000000, A.D. 2027-Sep-04 00:00:00.0000, 2.120933896557907E+08, 4.096648350837471E+08, -4.856833025952101E+06,
2461659.500000000, A.D. 2027-Sep-11 00:00:00.0000, 2.028371079431095E+08, 4.151080136589558E+08, -5.183936435536951E+06,
2461666.500000000, A.D. 2027-Sep-18 00:00:00.0000, 1.934810291116659E+08, 4.203468841430596E+08, -5.508489924345046E+06,
2461673.500000000, A.D. 2027-Sep-25 00:00:00.0000, 1.840302037820017E+08, 4.253798427314739E+08, -5.830346370351821E+06,
2461680.500000000, A.D. 2027-Oct-02 00:00:00.0000, 1.744896943153817E+08, 4.302054312823939E+08, -6.149361743730932E+06,
2461687.500000000, A.D. 2027-Oct-09 00:00:00.0000, 1.648645697857145E+08, 4.348223360698202E+08, -6.465395193049312E+06,
2461694.500000000, A.D. 2027-Oct-16 00:00:00.0000, 1.551599011394984E+08, 4.392293862077854E+08, -6.778309142325521E+06,
2461701.500000000, A.D. 2027-Oct-23 00:00:00.0000, 1.453807568115504E+08, 4.434255517503510E+08, -7.087969423472703E+06,
2461708.500000000, A.D. 2027-Oct-30 00:00:00.0000, 1.355321991787505E+08, 4.474099420887526E+08, -7.394245428879559E+06,
2461715.500000000, A.D. 2027-Nov-06 00:00:00.0000, 1.256192806960636E+08, 4.511818057843042E+08, -7.697010085589916E+06,
2461722.500000000, A.D. 2027-Nov-13 00:00:00.0000, 1.156470377350714E+08, 4.547405297688278E+08, -7.996139638754934E+06,
2461729.500000000, A.D. 2027-Nov-20 00:00:00.0000, 1.056204850299647E+08, 4.580856357372054E+08, -8.291513688983649E+06,
2461736.500000000, A.D. 2027-Nov-27 00:00:00.0000, 9.554461235378832E+07, 4.612167767095133E+08, -8.583015389973015E+06,
2461743.500000000, A.D. 2027-Dec-04 00:00:00.0000, 8.542438140642488E+07, 4.641337346863846E+08, -8.870531546419322E+06,
2461750.500000000, A.D. 2027-Dec-11 00:00:00.0000, 7.526472236649466E+07, 4.668364184423742E+08, -9.153952640534222E+06,
2461757.500000000, A.D. 2027-Dec-18 00:00:00.0000, 6.507053038385776E+07, 4.693248611276387E+08, -9.433172840115905E+06,
2461764.500000000, A.D. 2027-Dec-25 00:00:00.0000, 5.484666216574192E+07, 4.715992176854787E+08, -9.708090002348393E+06,
2461771.500000000, A.D. 2028-Jan-01 00:00:00.0000, 4.459793269824925E+07, 4.736597621102059E+08, -9.978605676009059E+06,
$$EOE